{"type": "FeatureCollection", "features": [ {"type": "Feature", "properties": {"norad_id": 51444, "name": "CSG-2", "group": "resource", "lat": 46.081341118641134, "lon": 154.29777687778872, "alt_km": 617.7386484224508, "timestamp": "2025-12-07T03:52:32.127912+00:00", "meta": {"OBJECT_NAME": "CSG-2", "OBJECT_ID": "2022-008A", "EPOCH": "2025-12-06T14:42:13.758336", "MEAN_MOTION": 14.82154024, "ECCENTRICITY": 0.00014923, "INCLINATION": 97.8814, "RA_OF_ASC_NODE": 162.0283, "ARG_OF_PERICENTER": 88.7227, "MEAN_ANOMALY": 271.4157, "EPHEMERIS_TYPE": 0, "CLASSIFICATION_TYPE": "U", "NORAD_CAT_ID": 51444, "ELEMENT_SET_NO": 999, "REV_AT_EPOCH": 20806, "BSTAR": 0.00011709698, "MEAN_MOTION_DOT": 8.8e-06, "MEAN_MOTION_DDOT": 0}, "tle": {"line1": "1 51444U 22008A   25340.61265924  .00000880  00000+0  11710-3 0  9997", "line2": "2 51444  97.8814 162.0283 0001492  88.7227 271.4157 14.82154024208063"}}, "geometry": {"type": "Point", "coordinates": [154.29777687778872, 46.081341118641134]}}, {"type": "Feature", "properties": {"norad_id": 52912, "name": "GAOFEN-12 03", "group": "resource", "lat": 14.360495470573204, "lon": -133.3848873701191, "alt_km": 630.6982142968563, "timestamp": "2025-12-07T03:52:32.127923+00:00", "meta": {"OBJECT_NAME": "GAOFEN-12 03", "OBJECT_ID": "2022-069A", "EPOCH": "2025-12-06T14:49:32.764512", "MEAN_MOTION": 14.79586963, "ECCENTRICITY": 0.00023056, "INCLINATION": 97.8489, "RA_OF_ASC_NODE": 228.108, "ARG_OF_PERICENTER": 72.7159, "MEAN_ANOMALY": 287.4305, "EPHEMERIS_TYPE": 0, "CLASSIFICATION_TYPE": "U", "NORAD_CAT_ID": 52912, "ELEMENT_SET_NO": 999, "REV_AT_EPOCH": 18613, "BSTAR": 0.00030861735, "MEAN_MOTION_DOT": 2.261e-05, "MEAN_MOTION_DDOT": 0}, "tle": {"line1": "1 52912U 22069A   25340.61774033  .00002261  00000+0  30862-3 0  9995", "line2": "2 52912  97.8489 228.1080 0002305  72.7159 287.4305 14.79586963186134"}}, "geometry": {"type": "Point", "coordinates": [-133.3848873701191, 14.360495470573204]}}, {"type": "Feature", "properties": {"norad_id": 54754, "name": "SWOT", "group": "resource", "lat": 38.20219546954814, "lon": 104.55843977930331, "alt_km": 889.9093141312242, "timestamp": "2025-12-07T03:52:32.127933+00:00", "meta": {"OBJECT_NAME": "SWOT", "OBJECT_ID": "2022-173A", "EPOCH": "2025-12-06T15:12:07.077600", "MEAN_MOTION": 14.00173321, "ECCENTRICITY": 3.507e-05, "INCLINATION": 77.61, "RA_OF_ASC_NODE": 295.233, "ARG_OF_PERICENTER": 130.4348, "MEAN_ANOMALY": 229.6835, "EPHEMERIS_TYPE": 0, "CLASSIFICATION_TYPE": "U", "NORAD_CAT_ID": 54754, "ELEMENT_SET_NO": 999, "REV_AT_EPOCH": 15220, "BSTAR": 0.00012120984, "MEAN_MOTION_DOT": 1.76e-06, "MEAN_MOTION_DDOT": 0}, "tle": {"line1": "1 54754U 22173A   25340.63341525  .00000176  00000+0  12121-3 0  9996", "line2": "2 54754  77.6100 295.2330 0000350 130.4348 229.6835 14.00173321152200"}}, "geometry": {"type": "Point", "coordinates": [104.55843977930331, 38.20219546954814]}}, {"type": "Feature", "properties": {"norad_id": 57654, "name": "GAOFEN-12 04", "group": "resource", "lat": -2.535695673109289, "lon": 76.65029643839682, "alt_km": 634.060302665287, "timestamp": "2025-12-07T03:52:32.127944+00:00", "meta": {"OBJECT_NAME": "GAOFEN-12 04", "OBJECT_ID": "2023-123A", "EPOCH": "2025-12-06T14:04:12.240192", "MEAN_MOTION": 14.79672508, "ECCENTRICITY": 0.00014095, "INCLINATION": 97.912, "RA_OF_ASC_NODE": 256.4368, "ARG_OF_PERICENTER": 72.4683, "MEAN_ANOMALY": 287.6683, "EPHEMERIS_TYPE": 0, "CLASSIFICATION_TYPE": "U", "NORAD_CAT_ID": 57654, "ELEMENT_SET_NO": 999, "REV_AT_EPOCH": 12414, "BSTAR": 0.00039343382, "MEAN_MOTION_DOT": 2.902e-05, "MEAN_MOTION_DDOT": 0}, "tle": {"line1": "1 57654U 23123A   25340.58625278  .00002902  00000+0  39343-3 0  9992", "line2": "2 57654  97.9120 256.4368 0001409  72.4683 287.6683 14.79672508124146"}}, "geometry": {"type": "Point", "coordinates": [76.65029643839682, -2.535695673109289]}}, {"type": "Feature", "properties": {"norad_id": 59065, "name": "PARS 1", "group": "resource", "lat": 70.71073481905484, "lon": -70.01994143490633, "alt_km": 428.63157025131386, "timestamp": "2025-12-07T03:52:32.127954+00:00", "meta": {"OBJECT_NAME": "PARS 1", "OBJECT_ID": "2024-039Q", "EPOCH": "2025-12-06T13:32:09.707136", "MEAN_MOTION": 15.40771734, "ECCENTRICITY": 0.00126876, "INCLINATION": 97.463, "RA_OF_ASC_NODE": 311.3669, "ARG_OF_PERICENTER": 90.4011, "MEAN_ANOMALY": 269.8689, "EPHEMERIS_TYPE": 0, "CLASSIFICATION_TYPE": "U", "NORAD_CAT_ID": 59065, "ELEMENT_SET_NO": 999, "REV_AT_EPOCH": 9893, "BSTAR": 0.00043828627, "MEAN_MOTION_DOT": 0.00017919, "MEAN_MOTION_DDOT": 0}, "tle": {"line1": "1 59065U 24039Q   25340.56400124  .00017919  00000+0  43829-3 0  9994", "line2": "2 59065  97.4630 311.3669 0012687  90.4011 269.8689 15.40771734 98930"}}, "geometry": {"type": "Point", "coordinates": [-70.01994143490633, 70.71073481905484]}}, {"type": "Feature", "properties": {"norad_id": 59371, "name": "RESURS-P 4", "group": "resource", "lat": 31.032630075539302, "lon": -76.78931123045561, "alt_km": 466.92858141146644, "timestamp": "2025-12-07T03:52:32.127964+00:00", "meta": {"OBJECT_NAME": "RESURS-P 4", "OBJECT_ID": "2024-061A", "EPOCH": "2025-12-06T13:37:52.299552", "MEAN_MOTION": 15.32012844, "ECCENTRICITY": 0.00019487, "INCLINATION": 97.2541, "RA_OF_ASC_NODE": 287.0246, "ARG_OF_PERICENTER": 53.353, "MEAN_ANOMALY": 306.7891, "EPHEMERIS_TYPE": 0, "CLASSIFICATION_TYPE": "U", "NORAD_CAT_ID": 59371, "ELEMENT_SET_NO": 999, "REV_AT_EPOCH": 9426, "BSTAR": 0.00021880069, "MEAN_MOTION_DOT": 6.687e-05, "MEAN_MOTION_DDOT": 0}, "tle": {"line1": "1 59371U 24061A   25340.56796643  .00006687  00000+0  21880-3 0  9996", "line2": "2 59371  97.2541 287.0246 0001948  53.3530 306.7891 15.32012844 94260"}}, "geometry": {"type": "Point", "coordinates": [-76.78931123045561, 31.032630075539302]}}, {"type": "Feature", "properties": {"norad_id": 59625, "name": "LEGION 1", "group": "resource", "lat": -29.211561386527173, "lon": -128.388988048192, "alt_km": 524.7589381544858, "timestamp": "2025-12-07T03:52:32.127975+00:00", "meta": {"OBJECT_NAME": "LEGION 1", "OBJECT_ID": "2024-081A", "EPOCH": "2025-12-06T11:07:03.852192", "MEAN_MOTION": 15.16388017, "ECCENTRICITY": 0.00044269, "INCLINATION": 97.5222, "RA_OF_ASC_NODE": 55.1559, "ARG_OF_PERICENTER": 344.0791, "MEAN_ANOMALY": 16.0302, "EPHEMERIS_TYPE": 0, "CLASSIFICATION_TYPE": "U", "NORAD_CAT_ID": 59625, "ELEMENT_SET_NO": 999, "REV_AT_EPOCH": 8832, "BSTAR": 0.00044201594, "MEAN_MOTION_DOT": 8.522e-05, "MEAN_MOTION_DDOT": 0}, "tle": {"line1": "1 59625U 24081A   25340.46323903  .00008522  00000+0  44202-3 0  9997", "line2": "2 59625  97.5222  55.1559 0004426 344.0791  16.0302 15.16388017 88323"}}, "geometry": {"type": "Point", "coordinates": [-128.388988048192, -29.211561386527173]}}, {"type": "Feature", "properties": {"norad_id": 59626, "name": "LEGION 2", "group": "resource", "lat": 28.618071699359934, "lon": 51.800432706477835, "alt_km": 514.1861772040475, "timestamp": "2025-12-07T03:52:32.127986+00:00", "meta": {"OBJECT_NAME": "LEGION 2", "OBJECT_ID": "2024-081B", "EPOCH": "2025-12-06T13:29:43.509696", "MEAN_MOTION": 15.1640019, "ECCENTRICITY": 0.00060543, "INCLINATION": 97.5224, "RA_OF_ASC_NODE": 55.341, "ARG_OF_PERICENTER": 318.8824, "MEAN_ANOMALY": 41.1952, "EPHEMERIS_TYPE": 0, "CLASSIFICATION_TYPE": "U", "NORAD_CAT_ID": 59626, "ELEMENT_SET_NO": 999, "REV_AT_EPOCH": 8834, "BSTAR": 0.00047574349, "MEAN_MOTION_DOT": 9.183e-05, "MEAN_MOTION_DDOT": 0}, "tle": {"line1": "1 59626U 24081B   25340.56230914  .00009183  00000+0  47574-3 0  9997", "line2": "2 59626  97.5224  55.3410 0006054 318.8824  41.1952 15.16400190 88348"}}, "geometry": {"type": "Point", "coordinates": [51.800432706477835, 28.618071699359934]}}, {"type": "Feature", "properties": {"norad_id": 60182, "name": "ALOS-4 (DAICHI-4)", "group": "resource", "lat": 66.08752538279818, "lon": 57.7819027273255, "alt_km": 623.672077000394, "timestamp": "2025-12-07T03:52:32.127996+00:00", "meta": {"OBJECT_NAME": "ALOS-4 (DAICHI-4)", "OBJECT_ID": "2024-123A", "EPOCH": "2025-12-06T12:57:48.916800", "MEAN_MOTION": 14.79473822, "ECCENTRICITY": 0.00014431, "INCLINATION": 97.9234, "RA_OF_ASC_NODE": 75.4759, "ARG_OF_PERICENTER": 101.6248, "MEAN_ANOMALY": 258.5126, "EPHEMERIS_TYPE": 0, "CLASSIFICATION_TYPE": "U", "NORAD_CAT_ID": 60182, "ELEMENT_SET_NO": 999, "REV_AT_EPOCH": 7739, "BSTAR": 0.00056809937, "MEAN_MOTION_DOT": 4.194e-05, "MEAN_MOTION_DDOT": 0}, "tle": {"line1": "1 60182U 24123A   25340.54014950  .00004194  00000+0  56810-3 0  9991", "line2": "2 60182  97.9234  75.4759 0001443 101.6248 258.5126 14.79473822 77396"}}, "geometry": {"type": "Point", "coordinates": [57.7819027273255, 66.08752538279818]}}, {"type": "Feature", "properties": {"norad_id": 60452, "name": "LEGION 3", "group": "resource", "lat": 27.501303473873453, "lon": 11.426097398155852, "alt_km": 520.6449395613317, "timestamp": "2025-12-07T03:52:32.128007+00:00", "meta": {"OBJECT_NAME": "LEGION 3", "OBJECT_ID": "2024-146A", "EPOCH": "2025-12-06T11:52:40.770048", "MEAN_MOTION": 15.15662815, "ECCENTRICITY": 0.00141405, "INCLINATION": 45.0027, "RA_OF_ASC_NODE": 343.6074, "ARG_OF_PERICENTER": 163.9855, "MEAN_ANOMALY": 196.1473, "EPHEMERIS_TYPE": 0, "CLASSIFICATION_TYPE": "U", "NORAD_CAT_ID": 60452, "ELEMENT_SET_NO": 999, "REV_AT_EPOCH": 7278, "BSTAR": 0.00047300959, "MEAN_MOTION_DOT": 8.918e-05, "MEAN_MOTION_DDOT": 0}, "tle": {"line1": "1 60452U 24146A   25340.49491632  .00008918  00000+0  47301-3 0  9999", "line2": "2 60452  45.0027 343.6074 0014140 163.9855 196.1473 15.15662815 72786"}}, "geometry": {"type": "Point", "coordinates": [11.426097398155852, 27.501303473873453]}}]}